{"type":"FeatureCollection","name":"Germany NUTS 2024 level 1, GISCO 1:20 million","features":[{"type":"Feature","properties":{"NUTS_ID":"DE1","LEVL_CODE":1,"CNTR_CODE":"DE","NAME_LATN":"Baden-Württemberg","NUTS_NAME":"Baden-Württemberg","MOUNT_TYPE":null,"URBN_TYPE":null,"COAST_TYPE":null,"NAME_ENGL":"Germany","NAME_FREN":"Allemagne","ISO3_CODE":"DEU","SVRG_UN":"UN Member State","CAPT":"Berlin","EU_STAT":"T","EFTA_STAT":"F","CC_STAT":"F","NAME_GERM":"Deutschland","state_code":"08","region_id":"south"},"geometry":{"type":"MultiPolygon","coordinates":[[[[9.798422408000022,49.69491956000007],[9.935535043000073,49.50070306100008],[10.083723320000047,49.54356090300007],[10.118327538000074,49.47316953400008],[10.111966667000047,49.384910492000074],[10.140738297000041,49.21004916800007],[10.25676339000006,49.05949499600007],[10.40984932300006,48.97743556900008],[10.423689313000068,48.74423464400007],[10.487258070000053,48.696662133000075],[10.277423768000062,48.67987230700004],[10.278226336000046,48.51609452100007],[10.230779511000037,48.51051105800008],[10.133895591000055,48.45487146700003],[10.032694509000066,48.45719634300008],[10.02524711600006,48.42211964900008],[9.983220738000057,48.38220419100003],[9.997605834000069,48.35011795400004],[10.095357282000066,48.16401489900005],[10.136457220000068,48.108459581000034],[10.114927349000027,47.976300482000056],[10.105300638000074,47.97463863000007],[10.110136718000035,47.93714985100007],[10.13192829600007,47.820087423000075],[10.077292527000054,47.63927434900006],[9.859402661000047,47.667939869000065],[9.692151663000061,47.61042352000004],[9.558720702000073,47.541892877000066],[9.506947226000023,47.54973636700004],[9.182192186000066,47.65589045300004],[8.874888089000024,47.65466992900008],[8.850247057000047,47.70439475000006],[8.821322310000028,47.704217467000035],[8.795708327000057,47.67559553800004],[8.67046119400004,47.68486244500008],[8.66335415900005,47.68589263500007],[8.715380050000022,47.750154845000054],[8.613831660000073,47.80107906500007],[8.51011489800004,47.77619041600008],[8.435063146000061,47.67615028700004],[8.606369523000069,47.66900558100008],[8.426434680000057,47.56754892500004],[8.228042002000052,47.61190579700008],[8.015890763000073,47.55535073400006],[7.894107272000042,47.586375117000046],[7.713784363000059,47.53940500600004],[7.634097171000064,47.56111351000004],[7.589039168000056,47.58987802200005],[7.545990414000073,47.74357396400006],[7.604545128000041,47.968912852000074],[7.577290835000042,48.11565507200004],[7.576981681000063,48.119056390000026],[7.680712927000059,48.25726715600007],[7.731775146000075,48.38014409600004],[7.824622053000041,48.61143485900004],[7.959630338000068,48.718580950000046],[8.23263287800006,48.96657139400003],[8.261283769000045,48.980917125000076],[8.277348764000067,48.989938996000035],[8.339970083000026,49.08014999400007],[8.413072656000054,49.24981654700008],[8.466985734000048,49.28297554800008],[8.487268003000054,49.29002658700006],[8.470915330000025,49.34071295700005],[8.497316242000068,49.41134690700005],[8.472505548000072,49.44351366200004],[8.423067954000032,49.541820931000075],[8.422700366000072,49.574192596000046],[8.42243965800003,49.58338538400005],[8.581375035000065,49.51978057200006],[8.66016757400007,49.59172949500004],[8.829396805000044,49.44859844000007],[8.931880216000025,49.470637096000075],[9.082780236000076,49.52639087000006],[9.10300593200003,49.57745611000007],[9.410975584000028,49.66349767400004],[9.360695684000063,49.75643771000006],[9.471497455000076,49.77972652300008],[9.64873582000007,49.79147741200006],[9.644790861000047,49.72135934100004],[9.798422408000022,49.69491956000007]]]]},"id":"DE1"},{"type":"Feature","properties":{"NUTS_ID":"DE2","LEVL_CODE":1,"CNTR_CODE":"DE","NAME_LATN":"Bayern","NUTS_NAME":"Bayern","MOUNT_TYPE":null,"URBN_TYPE":null,"COAST_TYPE":null,"NAME_ENGL":"Germany","NAME_FREN":"Allemagne","ISO3_CODE":"DEU","SVRG_UN":"UN Member State","CAPT":"Berlin","EU_STAT":"T","EFTA_STAT":"F","CC_STAT":"F","NAME_GERM":"Deutschland","state_code":"09","region_id":"south"},"geometry":{"type":"MultiPolygon","coordinates":[[[[10.58655114000004,50.323437324000054],[10.610162428000024,50.22792040500008],[10.72944314700004,50.23026446100005],[10.805427038000062,50.268510079000066],[10.752882158000034,50.35528697700005],[10.945591156000035,50.38650604800006],[11.113501554000038,50.35193171200007],[11.189943055000072,50.27118555100003],[11.268402128000048,50.32816439100003],[11.265937886000074,50.479421107000064],[11.385038190000046,50.51133929200006],[11.481568224000057,50.43162139900005],[11.603290308000055,50.39876590100005],[11.919323122000037,50.424728016000074],[12.100900625000065,50.31802807500003],[12.160679129000073,50.21984910300006],[12.260798923000038,50.05815665500006],[12.550988701000051,49.90508807900005],[12.401524209000058,49.758373121000034],[12.593778745000066,49.542191357000036],[12.637107380000032,49.520279912000035],[12.63376343300007,49.47619511100004],[12.792186180000044,49.358154840000054],[12.984293566000076,49.322934513000064],[13.170907943000032,49.17357963100005],[13.41665153300005,48.980035368000074],[13.551578318000054,48.96778749400005],[13.839507129000026,48.77160502800007],[13.796106769000062,48.71360049300006],[13.809691039000029,48.61491346200006],[13.727090617000044,48.51301965600004],[13.513497246000043,48.59096179000005],[13.438430625000024,48.548895025000036],[13.414325218000045,48.38014409600004],[13.177043068000046,48.29438993100007],[12.944684477000067,48.20669234400003],[12.751554922000025,48.112810409000076],[12.860181681000029,47.996639851000054],[12.875785694000058,47.96260914100003],[12.984537639000052,47.85674540900004],[12.928674957000055,47.73569148400003],[13.079003518000036,47.66716295800006],[13.046055369000044,47.52050256700005],[12.912872511000046,47.49865145900003],[12.695795413000042,47.682222995000075],[12.575026261000062,47.632315980000044],[12.338045351000062,47.69708757500007],[12.06066222100003,47.61874355300006],[11.632883142000026,47.59244601900008],[11.560552463000022,47.52160337300006],[11.410219187000052,47.49532392400005],[11.421427625000035,47.44485203700003],[11.016500436000058,47.396367988000065],[10.991202288000068,47.396130991000064],[10.886146826000072,47.53678234600005],[10.810076885000058,47.52045065500005],[10.454438851000077,47.55579702400007],[10.429380963000028,47.39241719700004],[10.178352767000035,47.270114025000055],[10.200433607000036,47.35576015400005],[9.999526182000068,47.483017139000026],[9.967813723000063,47.546240553000075],[9.558720702000073,47.541892877000066],[9.692151663000061,47.61042352000004],[9.859402661000047,47.667939869000065],[10.077292527000054,47.63927434900006],[10.13192829600007,47.820087423000075],[10.110136718000035,47.93714985100007],[10.105300638000074,47.97463863000007],[10.114927349000027,47.976300482000056],[10.136457220000068,48.108459581000034],[10.095357282000066,48.16401489900005],[9.997605834000069,48.35011795400004],[9.983220738000057,48.38220419100003],[10.02524711600006,48.42211964900008],[10.032694509000066,48.45719634300008],[10.133895591000055,48.45487146700003],[10.230779511000037,48.51051105800008],[10.278226336000046,48.51609452100007],[10.277423768000062,48.67987230700004],[10.487258070000053,48.696662133000075],[10.423689313000068,48.74423464400007],[10.40984932300006,48.97743556900008],[10.25676339000006,49.05949499600007],[10.140738297000041,49.21004916800007],[10.111966667000047,49.384910492000074],[10.118327538000074,49.47316953400008],[10.083723320000047,49.54356090300007],[9.935535043000073,49.50070306100008],[9.798422408000022,49.69491956000007],[9.644790861000047,49.72135934100004],[9.64873582000007,49.79147741200006],[9.471497455000076,49.77972652300008],[9.360695684000063,49.75643771000006],[9.410975584000028,49.66349767400004],[9.10300593200003,49.57745611000007],[9.127169741000046,49.74213453800007],[9.036080437000066,49.84650394000005],[9.05008024700004,49.86631513100008],[9.016088342000046,49.991340570000034],[8.990559953000059,50.06711914200008],[9.254054796000048,50.14191051900008],[9.404984498000033,50.08773445500003],[9.500834948000033,50.11373983400006],[9.539038081000058,50.22196612000005],[9.62315099400007,50.229040145000056],[9.732914479000044,50.35614940500005],[9.779706998000051,50.411333599000045],[9.935654764000049,50.41960648600008],[10.041338322000058,50.51646964500003],[10.201043551000055,50.54966491500005],[10.450532229000032,50.401859656000056],[10.58655114000004,50.323437324000054]]]]},"id":"DE2"},{"type":"Feature","properties":{"NUTS_ID":"DE3","LEVL_CODE":1,"CNTR_CODE":"DE","NAME_LATN":"Berlin","NUTS_NAME":"Berlin","MOUNT_TYPE":null,"URBN_TYPE":null,"COAST_TYPE":null,"NAME_ENGL":"Germany","NAME_FREN":"Allemagne","ISO3_CODE":"DEU","SVRG_UN":"UN Member State","CAPT":"Berlin","EU_STAT":"T","EFTA_STAT":"F","CC_STAT":"F","NAME_GERM":"Deutschland","state_code":"11","region_id":"east"},"geometry":{"type":"MultiPolygon","coordinates":[[[[13.666979985000069,52.47416713600006],[13.729883853000047,52.43859323700008],[13.699737772000049,52.37788298900006],[13.420985176000045,52.37624695200003],[13.311925902000041,52.399185567000075],[13.165898058000039,52.39427537600005],[13.111079524000047,52.426786683000046],[13.153695734000053,52.50182164600005],[13.164262891000021,52.598900556000046],[13.39853983100005,52.648194466000064],[13.610827416000063,52.54423548500006],[13.666979985000069,52.47416713600006]]]]},"id":"DE3"},{"type":"Feature","properties":{"NUTS_ID":"DE4","LEVL_CODE":1,"CNTR_CODE":"DE","NAME_LATN":"Brandenburg","NUTS_NAME":"Brandenburg","MOUNT_TYPE":null,"URBN_TYPE":null,"COAST_TYPE":null,"NAME_ENGL":"Germany","NAME_FREN":"Allemagne","ISO3_CODE":"DEU","SVRG_UN":"UN Member State","CAPT":"Berlin","EU_STAT":"T","EFTA_STAT":"F","CC_STAT":"F","NAME_GERM":"Deutschland","state_code":"12","region_id":"east"},"geometry":{"type":"MultiPolygon","coordinates":[[[[14.204571785000041,53.42821750000007],[14.175552969000023,53.26628287300008],[14.412156848000052,53.329636082000036],[14.34916045600005,53.07293872100007],[14.143657761000043,52.96136838800004],[14.156692153000051,52.895590998000046],[14.164825372000053,52.830544186000054],[14.43643813600005,52.67990036100008],[14.565062983000075,52.624496890000046],[14.63056410200005,52.521818186000075],[14.53436189000007,52.39500803800007],[14.600891329000035,52.27205200600008],[14.69553976900005,52.22886559500006],[14.755105498000034,52.07008455600004],[14.716716022000071,52.00118802000003],[14.611507325000048,51.83039265600007],[14.737448991000065,51.664883159000055],[14.72986178900004,51.58177711400003],[14.447770935000051,51.54206902900006],[14.163324720000048,51.54104303400004],[14.028511797000021,51.42220974500003],[13.835312830000078,51.37678990000006],[13.691250284000034,51.374013070000046],[13.39886277200003,51.440597722000064],[13.210149964000038,51.404735869000035],[13.184064393000028,51.533930723000026],[13.05102479900006,51.64767692700008],[13.151754281000024,51.709762830000045],[13.150913352000032,51.85961035100007],[12.769780496000067,51.97927454500007],[12.376122677000069,52.04511949700003],[12.27672457500006,52.10401790800006],[12.237233680000031,52.172570335000046],[12.317180235000023,52.45409538900003],[12.283323844000051,52.50472906700003],[12.171291236000059,52.50618239900007],[12.249203418000036,52.791861924000045],[12.12681158600003,52.89019955500004],[11.914646119000054,52.895431691000056],[11.597784478000051,53.03592664900003],[11.265732116000038,53.12197796000004],[11.508824272000027,53.134813430000065],[11.602809398000034,53.225891630000035],[11.785738805000051,53.23323717800008],[12.098946050000052,53.35302222000007],[12.32510135800004,53.32130157900008],[12.331751405000034,53.31801088100008],[12.984683150000023,53.164985545000036],[13.241403438000077,53.23240102400007],[13.413668873000063,53.270018469000036],[13.710065697000061,53.47906264300008],[14.204571785000041,53.42821750000007]],[[13.111079524000047,52.426786683000046],[13.165898058000039,52.39427537600005],[13.311925902000041,52.399185567000075],[13.420985176000045,52.37624695200003],[13.699737772000049,52.37788298900006],[13.729883853000047,52.43859323700008],[13.666979985000069,52.47416713600006],[13.610827416000063,52.54423548500006],[13.39853983100005,52.648194466000064],[13.164262891000021,52.598900556000046],[13.153695734000053,52.50182164600005],[13.111079524000047,52.426786683000046]]]]},"id":"DE4"},{"type":"Feature","properties":{"NUTS_ID":"DE5","LEVL_CODE":1,"CNTR_CODE":"DE","NAME_LATN":"Bremen","NUTS_NAME":"Bremen","MOUNT_TYPE":null,"URBN_TYPE":null,"COAST_TYPE":null,"NAME_ENGL":"Germany","NAME_FREN":"Allemagne","ISO3_CODE":"DEU","SVRG_UN":"UN Member State","CAPT":"Berlin","EU_STAT":"T","EFTA_STAT":"F","CC_STAT":"F","NAME_GERM":"Deutschland","state_code":"04","region_id":"north_west"},"geometry":{"type":"MultiPolygon","coordinates":[[[[8.984185597000021,53.12607105200004],[8.915827207000063,53.01102139000005],[8.711423787000058,53.044629959000076],[8.654898636000041,53.108864373000074],[8.485330674000068,53.227120040000045],[8.984185597000021,53.12607105200004]]],[[[8.609431967000035,53.48962637900007],[8.492651969000065,53.47242003300005],[8.552684190000036,53.51617546700004],[8.56436175400006,53.54979198700005],[8.523293773000034,53.59156510400004],[8.520410542000036,53.60620504600007],[8.608423354000024,53.58623128200003],[8.645854189000033,53.51925796800003],[8.609431967000035,53.48962637900007]]]]},"id":"DE5"},{"type":"Feature","properties":{"NUTS_ID":"DE6","LEVL_CODE":1,"CNTR_CODE":"DE","NAME_LATN":"Hamburg","NUTS_NAME":"Hamburg","MOUNT_TYPE":null,"URBN_TYPE":null,"COAST_TYPE":null,"NAME_ENGL":"Germany","NAME_FREN":"Allemagne","ISO3_CODE":"DEU","SVRG_UN":"UN Member State","CAPT":"Berlin","EU_STAT":"T","EFTA_STAT":"F","CC_STAT":"F","NAME_GERM":"Deutschland","state_code":"02","region_id":"north_west"},"geometry":{"type":"MultiPolygon","coordinates":[[[[10.307954020000068,53.43320100700004],[9.921512360000065,53.423494633000075],[9.76886119300002,53.50527901100003],[9.765380813000036,53.54651849000004],[9.734364863000053,53.56521552600003],[9.945375869000031,53.652928141000075],[10.07280505600005,53.709633980000035],[10.19315425000002,53.644390127000065],[10.164742717000024,53.548027467000054],[10.236678400000073,53.496354352000026],[10.307954020000068,53.43320100700004]]],[[[8.510300638000047,54.01381423200007],[8.456317204000072,53.91417447100008],[8.357419460000074,53.928272279000055],[8.445662748000075,54.013781265000034],[8.510300638000047,54.01381423200007]]]]},"id":"DE6"},{"type":"Feature","properties":{"NUTS_ID":"DE7","LEVL_CODE":1,"CNTR_CODE":"DE","NAME_LATN":"Hessen","NUTS_NAME":"Hessen","MOUNT_TYPE":null,"URBN_TYPE":null,"COAST_TYPE":null,"NAME_ENGL":"Germany","NAME_FREN":"Allemagne","ISO3_CODE":"DEU","SVRG_UN":"UN Member State","CAPT":"Berlin","EU_STAT":"T","EFTA_STAT":"F","CC_STAT":"F","NAME_GERM":"Deutschland","state_code":"06","region_id":"central_west"},"geometry":{"type":"MultiPolygon","coordinates":[[[[9.64775541900002,51.55251093600003],[9.587293156000044,51.36977645800005],[9.731606173000046,51.29559093100005],[9.798823686000048,51.38445904400004],[9.928338963000044,51.37529909300008],[9.968192636000026,51.30518993000004],[10.206942226000024,51.19064892700004],[10.21001278500006,51.144082952000076],[10.17967120000003,51.013111038000034],[10.021558490000075,50.992949562000035],[10.036715256000036,50.867081306000046],[9.926176386000066,50.76738984500008],[9.901707055000031,50.65454768400008],[10.056324527000072,50.66807648000008],[10.041338322000058,50.51646964500003],[9.935654764000049,50.41960648600008],[9.779706998000051,50.411333599000045],[9.732914479000044,50.35614940500005],[9.62315099400007,50.229040145000056],[9.539038081000058,50.22196612000005],[9.500834948000033,50.11373983400006],[9.404984498000033,50.08773445500003],[9.254054796000048,50.14191051900008],[8.990559953000059,50.06711914200008],[9.016088342000046,49.991340570000034],[9.05008024700004,49.86631513100008],[9.036080437000066,49.84650394000005],[9.127169741000046,49.74213453800007],[9.10300593200003,49.57745611000007],[9.082780236000076,49.52639087000006],[8.931880216000025,49.470637096000075],[8.829396805000044,49.44859844000007],[8.66016757400007,49.59172949500004],[8.581375035000065,49.51978057200006],[8.42243965800003,49.58338538400005],[8.414774249000061,49.59505206700004],[8.379512454000064,49.68444425900003],[8.446377330000075,49.73079949700008],[8.448365102000025,49.733661606000055],[8.400055244000043,49.80367512200007],[8.343030653000028,49.94050608300006],[8.288245053000026,49.995134121000035],[8.190038615000049,50.03529591900008],[8.17513531700007,50.03425555900003],[7.919991325000069,49.97738291700006],[7.773996882000063,50.066539840000075],[8.121913464000045,50.27722512200006],[7.971559469000056,50.406220433000044],[8.012892797000063,50.527817095000046],[8.151592202000074,50.59937106700005],[8.125776635000022,50.68581392400006],[8.173119521000046,50.81643858100006],[8.35549618300007,50.86200085100006],[8.477892011000051,50.96904734700007],[8.549085223000077,51.10186802000004],[8.663463060000026,51.10865862400004],[8.739979571000049,51.18349364300008],[8.713734560000034,51.25613327700006],[8.592509389000043,51.29903404500004],[8.70927242700003,51.37183999200005],[8.91550449400006,51.39579255400008],[8.917593288000035,51.48144283900007],[8.970815081000069,51.506655556000055],[9.15541070100005,51.44267509100007],[9.440457243000026,51.65039405300007],[9.60887417400005,51.62479168300007],[9.64775541900002,51.55251093600003]]]]},"id":"DE7"},{"type":"Feature","properties":{"NUTS_ID":"DE8","LEVL_CODE":1,"CNTR_CODE":"DE","NAME_LATN":"Mecklenburg-Vorpommern","NUTS_NAME":"Mecklenburg-Vorpommern","MOUNT_TYPE":null,"URBN_TYPE":null,"COAST_TYPE":null,"NAME_ENGL":"Germany","NAME_FREN":"Allemagne","ISO3_CODE":"DEU","SVRG_UN":"UN Member State","CAPT":"Berlin","EU_STAT":"T","EFTA_STAT":"F","CC_STAT":"F","NAME_GERM":"Deutschland","state_code":"13","region_id":"east"},"geometry":{"type":"MultiPolygon","coordinates":[[[[13.298339489000057,54.599617167000076],[13.460018501000036,54.51565233700006],[13.51003619100004,54.56959381300004],[13.63871176300006,54.567454206000036],[13.55680794500006,54.44911689300005],[13.597303519000036,54.35124608400008],[13.319396030000064,54.19350592400008],[13.47479097400003,54.112162511000065],[13.736964447000048,54.137530180000056],[13.821254088000046,54.150270840000076],[13.97529318200003,53.984343093000064],[14.096144705000029,53.99780288200003],[14.22630214000003,53.928652853000074],[14.213077566000038,53.86647943000003],[14.05410405200007,53.831487725000045],[14.030434745000036,53.79861770600007],[14.094329156000072,53.75504202700006],[14.26603127900006,53.74559730800007],[14.268869316000064,53.69792322900008],[14.412156848000052,53.329636082000036],[14.175552969000023,53.26628287300008],[14.204571785000041,53.42821750000007],[13.710065697000061,53.47906264300008],[13.413668873000063,53.270018469000036],[13.241403438000077,53.23240102400007],[12.984683150000023,53.164985545000036],[12.331751405000034,53.31801088100008],[12.32510135800004,53.32130157900008],[12.098946050000052,53.35302222000007],[11.785738805000051,53.23323717800008],[11.602809398000034,53.225891630000035],[11.508824272000027,53.134813430000065],[11.265732116000038,53.12197796000004],[11.171861320000062,53.15664406700006],[10.970632809000051,53.331123121000076],[10.810076885000058,53.313691446000064],[10.595046769000021,53.36392761900004],[10.642202669000028,53.44216547900004],[10.810076885000058,53.515570479000075],[10.838545585000077,53.55712797400008],[10.90764985900006,53.57746430700007],[10.951918315000057,53.647622495000064],[10.762964579000027,53.81115294600005],[10.903661397000064,53.956821956000056],[11.138352294000072,54.00239951300006],[11.366208535000055,53.96480799600005],[11.452733107000029,53.89813703000004],[11.561778331000028,54.028088628000035],[11.66891737700007,54.14130745700004],[11.99848440900007,54.17496997000006],[12.114026117000037,54.17522646800006],[12.207709100000045,54.24402662600005],[12.285530692000066,54.27495204500008],[12.572140322000052,54.436438260000045],[12.79782810100005,54.37802449900005],[12.993830698000068,54.398175654000056],[13.132205211000041,54.29915473600005],[13.298339489000057,54.599617167000076]]]]},"id":"DE8"},{"type":"Feature","properties":{"NUTS_ID":"DE9","LEVL_CODE":1,"CNTR_CODE":"DE","NAME_LATN":"Niedersachsen","NUTS_NAME":"Niedersachsen","MOUNT_TYPE":null,"URBN_TYPE":null,"COAST_TYPE":null,"NAME_ENGL":"Germany","NAME_FREN":"Allemagne","ISO3_CODE":"DEU","SVRG_UN":"UN Member State","CAPT":"Berlin","EU_STAT":"T","EFTA_STAT":"F","CC_STAT":"F","NAME_GERM":"Deutschland","state_code":"03","region_id":"north_west"},"geometry":{"type":"MultiPolygon","coordinates":[[[[8.651577135000025,53.88331536100003],[9.029917344000069,53.825564876000044],[9.259451073000037,53.854869766000036],[9.397542461000057,53.74559730800007],[9.573364290000029,53.59975660600003],[9.765380813000036,53.54651849000004],[9.76886119300002,53.50527901100003],[9.921512360000065,53.423494633000075],[10.307954020000068,53.43320100700004],[10.46924395800005,53.38581535900005],[10.595046769000021,53.36392761900004],[10.810076885000058,53.313691446000064],[10.970632809000051,53.331123121000076],[11.171861320000062,53.15664406700006],[11.265732116000038,53.12197796000004],[11.597784478000051,53.03592664900003],[11.505026933000067,52.94103257100005],[10.810076885000058,52.84914009600004],[10.759314670000037,52.795830556000055],[11.008781587000044,52.49674744100008],[10.934542288000046,52.47179508000005],[11.046565223000073,52.37427448500006],[11.026550610000072,52.14649363800004],[10.964385542000059,52.05668275100004],[10.810076885000058,52.04798593800007],[10.561227171000041,52.00406592100006],[10.628470167000046,51.90031619800004],[10.588321105000034,51.79925845900004],[10.701372107000054,51.64218763900004],[10.677283104000026,51.63837586200003],[10.488551121000057,51.57477847700005],[9.928338963000044,51.37529909300008],[9.798823686000048,51.38445904400004],[9.731606173000046,51.29559093100005],[9.587293156000044,51.36977645800005],[9.64775541900002,51.55251093600003],[9.60887417400005,51.62479168300007],[9.440457243000026,51.65039405300007],[9.417317676000039,51.64726940600008],[9.427672421000068,51.82524224900004],[9.323343495000074,51.85506110700004],[9.308862224000052,51.922961945000054],[9.155604484000037,52.097829905000026],[8.98583374900005,52.19459840500008],[8.995234125000025,52.30253944200007],[9.125252500000045,52.41199361900004],[9.070391632000053,52.48821622000003],[8.923417172000029,52.40773459300004],[8.738736281000058,52.40102336000007],[8.702969762000066,52.50031151600007],[8.297213501000044,52.45649792100005],[8.466186630000038,52.26761396400008],[8.410586442000067,52.115114892000065],[8.096448004000024,52.05714505200007],[7.885160598000027,52.08339542200008],[7.988662483000041,52.12431337400005],[7.92347163200003,52.213652565000075],[7.956464886000049,52.27249056000005],[7.964625740000031,52.324858421000044],[7.608975825000073,52.47399038400005],[7.540633790000072,52.36841359600004],[7.317481009000062,52.28027195300007],[7.099149199000067,52.24305840800008],[7.065685203000044,52.24137303600003],[6.997369488000061,52.444526703000065],[6.697774679000077,52.48630126200004],[6.709741817000065,52.62778412900008],[7.006229336000047,52.63876304400003],[7.092691936000051,52.83820085600007],[7.194149484000036,52.97428243400003],[7.20279454100006,53.113281580000034],[7.208935202000021,53.243064469000046],[7.302077283000074,53.323638059000075],[7.039353392000066,53.33786033900003],[6.999446568000053,53.35988790400006],[7.051488021000068,53.499230140000066],[7.210963387000049,53.64682400100003],[7.550173265000069,53.675037571000075],[7.809895649000055,53.70766193600008],[8.014333558000033,53.69941540000008],[8.091290784000023,53.63810896700005],[8.143959039000038,53.592489871000055],[8.161393819000068,53.534286372000054],[8.133207912000046,53.51011685600008],[8.062340918000075,53.50566751000008],[8.19555493200005,53.40917151800005],[8.299814991000062,53.46574459500005],[8.244924142000059,53.54545595700006],[8.290381810000042,53.59970148800005],[8.552684190000036,53.51617546700004],[8.492651969000065,53.47242003300005],[8.609431967000035,53.48962637900007],[8.645854189000033,53.51925796800003],[8.608423354000024,53.58623128200003],[8.520410542000036,53.60620504600007],[8.517731731000026,53.74559730800007],[8.651577135000025,53.88331536100003]],[[8.711423787000058,53.044629959000076],[8.915827207000063,53.01102139000005],[8.984185597000021,53.12607105200004],[8.485330674000068,53.227120040000045],[8.654898636000041,53.108864373000074],[8.711423787000058,53.044629959000076]]],[[[6.784253560000025,53.548802720000026],[6.688693860000058,53.546187263000036],[6.619622502000027,53.596539912000026],[6.729143235000038,53.63249216500003],[6.784253560000025,53.548802720000026]]]]},"id":"DE9"},{"type":"Feature","properties":{"NUTS_ID":"DEA","LEVL_CODE":1,"CNTR_CODE":"DE","NAME_LATN":"Nordrhein-Westfalen","NUTS_NAME":"Nordrhein-Westfalen","MOUNT_TYPE":null,"URBN_TYPE":null,"COAST_TYPE":null,"NAME_ENGL":"Germany","NAME_FREN":"Allemagne","ISO3_CODE":"DEU","SVRG_UN":"UN Member State","CAPT":"Berlin","EU_STAT":"T","EFTA_STAT":"F","CC_STAT":"F","NAME_GERM":"Deutschland","state_code":"05","region_id":"central_west"},"geometry":{"type":"MultiPolygon","coordinates":[[[[8.702969762000066,52.50031151600007],[8.738736281000058,52.40102336000007],[8.923417172000029,52.40773459300004],[9.070391632000053,52.48821622000003],[9.125252500000045,52.41199361900004],[8.995234125000025,52.30253944200007],[8.98583374900005,52.19459840500008],[9.155604484000037,52.097829905000026],[9.308862224000052,51.922961945000054],[9.323343495000074,51.85506110700004],[9.427672421000068,51.82524224900004],[9.417317676000039,51.64726940600008],[9.440457243000026,51.65039405300007],[9.15541070100005,51.44267509100007],[8.970815081000069,51.506655556000055],[8.917593288000035,51.48144283900007],[8.91550449400006,51.39579255400008],[8.70927242700003,51.37183999200005],[8.592509389000043,51.29903404500004],[8.713734560000034,51.25613327700006],[8.739979571000049,51.18349364300008],[8.663463060000026,51.10865862400004],[8.549085223000077,51.10186802000004],[8.477892011000051,50.96904734700007],[8.35549618300007,50.86200085100006],[8.173119521000046,50.81643858100006],[8.125776635000022,50.68581392400006],[8.039690114000052,50.69737554200003],[7.851496027000053,50.925832359000026],[7.785898044000021,50.939913887000046],[7.661003516000051,50.820364357000074],[7.439151650000042,50.711089048000076],[7.212399277000031,50.62340506600003],[6.927901120000058,50.55861837800006],[6.893097398000066,50.48693809700006],[6.770958113000063,50.45494687000007],[6.800711664000062,50.36178152200006],[6.425294902000076,50.32301198700003],[6.405028615000049,50.32330853700006],[6.315555889000052,50.49704261100004],[6.192200636000052,50.521055484000044],[6.189312373000064,50.56609405700004],[6.194050729000026,50.637636230000055],[6.020999006000068,50.75429537200006],[6.086947596000073,50.91313496500004],[5.877055682000048,51.03205973900003],[6.174812124000027,51.18451343100003],[6.072657111000069,51.24258758000008],[6.224405044000036,51.36497902500008],[6.192230455000072,51.52239143000003],[5.953191999000069,51.74784610100005],[5.990897525000037,51.82431018600005],[6.167766021000034,51.90080465400007],[6.407779532000063,51.828092122000044],[6.777568393000024,51.93683942700005],[6.760464770000056,52.118569369000056],[7.065685203000044,52.24137303600003],[7.099149199000067,52.24305840800008],[7.317481009000062,52.28027195300007],[7.540633790000072,52.36841359600004],[7.608975825000073,52.47399038400005],[7.964625740000031,52.324858421000044],[7.956464886000049,52.27249056000005],[7.92347163200003,52.213652565000075],[7.988662483000041,52.12431337400005],[7.885160598000027,52.08339542200008],[8.096448004000024,52.05714505200007],[8.410586442000067,52.115114892000065],[8.466186630000038,52.26761396400008],[8.297213501000044,52.45649792100005],[8.702969762000066,52.50031151600007]]]]},"id":"DEA"},{"type":"Feature","properties":{"NUTS_ID":"DEB","LEVL_CODE":1,"CNTR_CODE":"DE","NAME_LATN":"Rheinland-Pfalz","NUTS_NAME":"Rheinland-Pfalz","MOUNT_TYPE":null,"URBN_TYPE":null,"COAST_TYPE":null,"NAME_ENGL":"Germany","NAME_FREN":"Allemagne","ISO3_CODE":"DEU","SVRG_UN":"UN Member State","CAPT":"Berlin","EU_STAT":"T","EFTA_STAT":"F","CC_STAT":"F","NAME_GERM":"Deutschland","state_code":"07","region_id":"central_west"},"geometry":{"type":"MultiPolygon","coordinates":[[[[7.971559469000056,50.406220433000044],[8.121913464000045,50.27722512200006],[7.773996882000063,50.066539840000075],[7.919991325000069,49.97738291700006],[8.17513531700007,50.03425555900003],[8.190038615000049,50.03529591900008],[8.288245053000026,49.995134121000035],[8.343030653000028,49.94050608300006],[8.400055244000043,49.80367512200007],[8.448365102000025,49.733661606000055],[8.446377330000075,49.73079949700008],[8.379512454000064,49.68444425900003],[8.414774249000061,49.59505206700004],[8.42243965800003,49.58338538400005],[8.422700366000072,49.574192596000046],[8.423067954000032,49.541820931000075],[8.472505548000072,49.44351366200004],[8.497316242000068,49.41134690700005],[8.470915330000025,49.34071295700005],[8.487268003000054,49.29002658700006],[8.466985734000048,49.28297554800008],[8.413072656000054,49.24981654700008],[8.339970083000026,49.08014999400007],[8.277348764000067,48.989938996000035],[8.261283769000045,48.980917125000076],[8.23263287800006,48.96657139400003],[8.068310039000039,48.99934588200006],[7.910654726000075,49.045163381000066],[7.635650929000064,49.05395039300004],[7.478726108000046,49.15775012100005],[7.368755545000056,49.16145809300008],[7.320340804000068,49.18949911000004],[7.310324981000065,49.24552158700004],[7.394494199000064,49.31635189000008],[7.402075702000047,49.36771857300005],[7.395898625000029,49.37204597900006],[7.292601393000041,49.40822243500003],[7.252589235000073,49.43146549700003],[7.276622301000032,49.54862361200003],[7.027979960000039,49.639438546000065],[6.891453967000075,49.61342255100004],[6.585597839000059,49.52592474200003],[6.380052606000049,49.551105033000056],[6.499791043000073,49.72820742700003],[6.474962738000045,49.82127507800004],[6.298279063000052,49.85882438400006],[6.136217786000032,50.01515130900003],[6.137662259000024,50.129951507000044],[6.195401546000028,50.229657692000046],[6.405028615000049,50.32330853700006],[6.425294902000076,50.32301198700003],[6.800711664000062,50.36178152200006],[6.770958113000063,50.45494687000007],[6.893097398000066,50.48693809700006],[6.927901120000058,50.55861837800006],[7.212399277000031,50.62340506600003],[7.439151650000042,50.711089048000076],[7.661003516000051,50.820364357000074],[7.785898044000021,50.939913887000046],[7.851496027000053,50.925832359000026],[8.039690114000052,50.69737554200003],[8.125776635000022,50.68581392400006],[8.151592202000074,50.59937106700005],[8.012892797000063,50.527817095000046],[7.971559469000056,50.406220433000044]]]]},"id":"DEB"},{"type":"Feature","properties":{"NUTS_ID":"DEC","LEVL_CODE":1,"CNTR_CODE":"DE","NAME_LATN":"Saarland","NUTS_NAME":"Saarland","MOUNT_TYPE":null,"URBN_TYPE":null,"COAST_TYPE":null,"NAME_ENGL":"Germany","NAME_FREN":"Allemagne","ISO3_CODE":"DEU","SVRG_UN":"UN Member State","CAPT":"Berlin","EU_STAT":"T","EFTA_STAT":"F","CC_STAT":"F","NAME_GERM":"Deutschland","state_code":"10","region_id":"central_west"},"geometry":{"type":"MultiPolygon","coordinates":[[[[7.276622301000032,49.54862361200003],[7.252589235000073,49.43146549700003],[7.292601393000041,49.40822243500003],[7.395898625000029,49.37204597900006],[7.402075702000047,49.36771857300005],[7.394494199000064,49.31635189000008],[7.310324981000065,49.24552158700004],[7.320340804000068,49.18949911000004],[7.368755545000056,49.16145809300008],[7.249932039000043,49.117937667000035],[7.101069047000067,49.15599804000004],[6.930711505000033,49.21620241000005],[6.779377652000051,49.161800706000065],[6.723465736000037,49.218829140000025],[6.55698581300004,49.41920838800007],[6.367107614000076,49.46950698200004],[6.380052606000049,49.551105033000056],[6.585597839000059,49.52592474200003],[6.891453967000075,49.61342255100004],[7.027979960000039,49.639438546000065],[7.276622301000032,49.54862361200003]]]]},"id":"DEC"},{"type":"Feature","properties":{"NUTS_ID":"DED","LEVL_CODE":1,"CNTR_CODE":"DE","NAME_LATN":"Sachsen","NUTS_NAME":"Sachsen","MOUNT_TYPE":null,"URBN_TYPE":null,"COAST_TYPE":null,"NAME_ENGL":"Germany","NAME_FREN":"Allemagne","ISO3_CODE":"DEU","SVRG_UN":"UN Member State","CAPT":"Berlin","EU_STAT":"T","EFTA_STAT":"F","CC_STAT":"F","NAME_GERM":"Deutschland","state_code":"14","region_id":"east"},"geometry":{"type":"MultiPolygon","coordinates":[[[[13.184064393000028,51.533930723000026],[13.210149964000038,51.404735869000035],[13.39886277200003,51.440597722000064],[13.691250284000034,51.374013070000046],[13.835312830000078,51.37678990000006],[14.028511797000021,51.42220974500003],[14.163324720000048,51.54104303400004],[14.447770935000051,51.54206902900006],[14.72986178900004,51.58177711400003],[14.931646348000072,51.466495258000066],[14.97418297300004,51.36394997700006],[15.022566269000038,51.27585717800008],[14.997301495000045,51.13758067900005],[14.823362001000078,50.87055037200008],[14.755768953000029,50.826100187000065],[14.61879975900007,50.85780447700006],[14.583493686000054,50.980511300000046],[14.491221239000026,51.04353041100006],[14.317873514000041,51.05469913300004],[14.282124881000072,51.00081036100005],[14.362585839000076,50.90419029100008],[13.829683216000035,50.73273847400003],[13.65217407800003,50.73035993500008],[13.501846054000055,50.633643033000055],[13.04970938300005,50.49839046800008],[12.948144599000045,50.40431146900005],[12.805882302000043,50.450163272000054],[12.583778453000036,50.407078916000046],[12.410605049000026,50.31818228700007],[12.316772118000074,50.181643043000065],[12.173330873000054,50.31222683100003],[12.100900625000065,50.31802807500003],[11.919323122000037,50.424728016000074],[11.896885221000048,50.540045236000026],[11.944137313000056,50.59127541300006],[12.065501267000059,50.568679813000074],[12.318916290000061,50.67653238400004],[12.250887418000048,50.73029528100005],[12.250495470000033,50.818537442000036],[12.652865525000038,50.92367806400006],[12.617354823000028,50.980793093000045],[12.436609796000027,51.08038873600003],[12.283546929000067,51.091924025000026],[12.170904669000038,51.27550845600007],[12.193544297000074,51.33251859000006],[12.198938751000071,51.531320556000026],[12.580262893000054,51.62606552200003],[13.05102479900006,51.64767692700008],[13.184064393000028,51.533930723000026]]]]},"id":"DED"},{"type":"Feature","properties":{"NUTS_ID":"DEE","LEVL_CODE":1,"CNTR_CODE":"DE","NAME_LATN":"Sachsen-Anhalt","NUTS_NAME":"Sachsen-Anhalt","MOUNT_TYPE":null,"URBN_TYPE":null,"COAST_TYPE":null,"NAME_ENGL":"Germany","NAME_FREN":"Allemagne","ISO3_CODE":"DEU","SVRG_UN":"UN Member State","CAPT":"Berlin","EU_STAT":"T","EFTA_STAT":"F","CC_STAT":"F","NAME_GERM":"Deutschland","state_code":"15","region_id":"east"},"geometry":{"type":"MultiPolygon","coordinates":[[[[12.283546929000067,51.091924025000026],[12.224168975000055,50.94293505200005],[12.163529435000044,50.95860010000007],[12.02101865000003,50.96912251700007],[11.696938354000054,51.08749113300007],[11.484608317000038,51.10543747500003],[11.385374531000025,51.24588698100007],[11.47301630800007,51.296467635000056],[11.39310686500005,51.359495493000054],[10.978112958000054,51.426885104000064],[10.916059003000044,51.616373933000034],[10.810076885000058,51.63959171400006],[10.701372107000054,51.64218763900004],[10.588321105000034,51.79925845900004],[10.628470167000046,51.90031619800004],[10.561227171000041,52.00406592100006],[10.810076885000058,52.04798593800007],[10.964385542000059,52.05668275100004],[11.026550610000072,52.14649363800004],[11.046565223000073,52.37427448500006],[10.934542288000046,52.47179508000005],[11.008781587000044,52.49674744100008],[10.759314670000037,52.795830556000055],[10.810076885000058,52.84914009600004],[11.505026933000067,52.94103257100005],[11.597784478000051,53.03592664900003],[11.914646119000054,52.895431691000056],[12.12681158600003,52.89019955500004],[12.249203418000036,52.791861924000045],[12.171291236000059,52.50618239900007],[12.283323844000051,52.50472906700003],[12.317180235000023,52.45409538900003],[12.237233680000031,52.172570335000046],[12.27672457500006,52.10401790800006],[12.376122677000069,52.04511949700003],[12.769780496000067,51.97927454500007],[13.150913352000032,51.85961035100007],[13.151754281000024,51.709762830000045],[13.05102479900006,51.64767692700008],[12.580262893000054,51.62606552200003],[12.198938751000071,51.531320556000026],[12.193544297000074,51.33251859000006],[12.170904669000038,51.27550845600007],[12.283546929000067,51.091924025000026]]]]},"id":"DEE"},{"type":"Feature","properties":{"NUTS_ID":"DEF","LEVL_CODE":1,"CNTR_CODE":"DE","NAME_LATN":"Schleswig-Holstein","NUTS_NAME":"Schleswig-Holstein","MOUNT_TYPE":null,"URBN_TYPE":null,"COAST_TYPE":null,"NAME_ENGL":"Germany","NAME_FREN":"Allemagne","ISO3_CODE":"DEU","SVRG_UN":"UN Member State","CAPT":"Berlin","EU_STAT":"T","EFTA_STAT":"F","CC_STAT":"F","NAME_GERM":"Deutschland","state_code":"01","region_id":"north_west"},"geometry":{"type":"MultiPolygon","coordinates":[[[[9.113097123000045,54.87360159800005],[9.295612509000023,54.80834476500007],[9.42015163800005,54.83195640400004],[9.422933882000052,54.82322309700004],[9.49194953400007,54.822635552000065],[9.946252908000076,54.76844849000008],[10.031170218000057,54.63657494100005],[9.976350848000038,54.47931344300008],[10.16851679000007,54.432845017000034],[10.174162139000032,54.34574558300005],[10.341321107000056,54.42807162400004],[10.728152434000037,54.30767138700003],[10.953803067000024,54.373479168000074],[11.073302325000043,54.311485117000075],[11.062144936000038,54.190118452000036],[10.778360441000075,54.06366754700008],[10.840885766000042,53.991893865000065],[10.903661397000064,53.956821956000056],[10.762964579000027,53.81115294600005],[10.951918315000057,53.647622495000064],[10.90764985900006,53.57746430700007],[10.838545585000077,53.55712797400008],[10.810076885000058,53.515570479000075],[10.642202669000028,53.44216547900004],[10.595046769000021,53.36392761900004],[10.46924395800005,53.38581535900005],[10.307954020000068,53.43320100700004],[10.236678400000073,53.496354352000026],[10.164742717000024,53.548027467000054],[10.19315425000002,53.644390127000065],[10.07280505600005,53.709633980000035],[9.945375869000031,53.652928141000075],[9.734364863000053,53.56521552600003],[9.579590677000056,53.61911904500005],[9.517639893000023,53.71386157900008],[9.198433484000077,53.88943213400006],[8.987136659000043,53.89615718200008],[8.889128820000053,53.955795926000064],[8.851253711000027,54.01741749400003],[8.936953643000038,54.07573638200006],[8.830173989000059,54.16117671500007],[8.844813221000038,54.26553280200005],[8.690795305000051,54.33202755900004],[8.860201192000034,54.44149204000007],[8.860056986000075,54.58010981000007],[8.650595328000065,54.823581336000075],[8.635999799000047,54.91156926800005],[9.113097123000045,54.87360159800005]]],[[[11.27227369600007,54.43365871600008],[11.152451704000043,54.39136068200003],[10.99701931800007,54.466554029000065],[11.157948092000026,54.517904083000076],[11.27227369600007,54.43365871600008]]],[[[8.668103875000043,54.48395034100008],[8.61013701500002,54.48269724900007],[8.561383860000035,54.52050652100007],[8.686306804000026,54.56344249800003],[8.724478299000054,54.55426248200007],[8.708697685000061,54.50732759300007],[8.668103875000043,54.48395034100008]]],[[[8.383573656000067,54.63079104600007],[8.327702292000026,54.611170282000046],[8.253172326000026,54.668258011000034],[8.349281935000022,54.72873720600006],[8.383573656000067,54.63079104600007]]],[[[8.629596445000061,54.71341763400005],[8.54294439000006,54.67111055700008],[8.44500836100002,54.71181468300006],[8.54755054900005,54.75858527400004],[8.629596445000061,54.71341763400005]]],[[[8.376755550000041,54.88040303200006],[8.315361092000046,54.845488414000044],[8.271889551000072,54.86302301500007],[8.30892994800007,54.95007404100005],[8.355316065000068,54.97703126300007],[8.376755550000041,54.88040303200006]]]]},"id":"DEF"},{"type":"Feature","properties":{"NUTS_ID":"DEG","LEVL_CODE":1,"CNTR_CODE":"DE","NAME_LATN":"Thüringen","NUTS_NAME":"Thüringen","MOUNT_TYPE":null,"URBN_TYPE":null,"COAST_TYPE":null,"NAME_ENGL":"Germany","NAME_FREN":"Allemagne","ISO3_CODE":"DEU","SVRG_UN":"UN Member State","CAPT":"Berlin","EU_STAT":"T","EFTA_STAT":"F","CC_STAT":"F","NAME_GERM":"Deutschland","state_code":"16","region_id":"east"},"geometry":{"type":"MultiPolygon","coordinates":[[[[12.163529435000044,50.95860010000007],[12.224168975000055,50.94293505200005],[12.283546929000067,51.091924025000026],[12.436609796000027,51.08038873600003],[12.617354823000028,50.980793093000045],[12.652865525000038,50.92367806400006],[12.250495470000033,50.818537442000036],[12.250887418000048,50.73029528100005],[12.318916290000061,50.67653238400004],[12.065501267000059,50.568679813000074],[11.944137313000056,50.59127541300006],[11.896885221000048,50.540045236000026],[11.919323122000037,50.424728016000074],[11.603290308000055,50.39876590100005],[11.481568224000057,50.43162139900005],[11.385038190000046,50.51133929200006],[11.265937886000074,50.479421107000064],[11.268402128000048,50.32816439100003],[11.189943055000072,50.27118555100003],[11.113501554000038,50.35193171200007],[10.945591156000035,50.38650604800006],[10.752882158000034,50.35528697700005],[10.805427038000062,50.268510079000066],[10.72944314700004,50.23026446100005],[10.610162428000024,50.22792040500008],[10.58655114000004,50.323437324000054],[10.450532229000032,50.401859656000056],[10.201043551000055,50.54966491500005],[10.041338322000058,50.51646964500003],[10.056324527000072,50.66807648000008],[9.901707055000031,50.65454768400008],[9.926176386000066,50.76738984500008],[10.036715256000036,50.867081306000046],[10.021558490000075,50.992949562000035],[10.17967120000003,51.013111038000034],[10.21001278500006,51.144082952000076],[10.206942226000024,51.19064892700004],[9.968192636000026,51.30518993000004],[9.928338963000044,51.37529909300008],[10.488551121000057,51.57477847700005],[10.677283104000026,51.63837586200003],[10.701372107000054,51.64218763900004],[10.810076885000058,51.63959171400006],[10.916059003000044,51.616373933000034],[10.978112958000054,51.426885104000064],[11.39310686500005,51.359495493000054],[11.47301630800007,51.296467635000056],[11.385374531000025,51.24588698100007],[11.484608317000038,51.10543747500003],[11.696938354000054,51.08749113300007],[12.02101865000003,50.96912251700007],[12.163529435000044,50.95860010000007]]]]},"id":"DEG"}]}
